{"type": "FeatureCollection", "features": [ {"type": "Feature", "properties": {"norad_id": 35885, "name": "COSMOS 2251 DEB", "group": "cosmos-2251-debris", "lat": -16.354986593882483, "lon": -69.5568195974527, "alt_km": 757.2580288825548, "timestamp": "2025-12-12T11:38:31.809479+00:00", "meta": {"OBJECT_NAME": "COSMOS 2251 DEB", "OBJECT_ID": "1993-036ATY", "EPOCH": "2025-12-11T14:00:29.145024", "MEAN_MOTION": 14.3751698, "ECCENTRICITY": 0.00231325, "INCLINATION": 74.0283, "RA_OF_ASC_NODE": 296.9234, "ARG_OF_PERICENTER": 17.6536, "MEAN_ANOMALY": 342.5416, "EPHEMERIS_TYPE": 0, "CLASSIFICATION_TYPE": "U", "NORAD_CAT_ID": 35885, "ELEMENT_SET_NO": 999, "REV_AT_EPOCH": 64999, "BSTAR": 0.0005257643, "MEAN_MOTION_DOT": 1.554e-05, "MEAN_MOTION_DDOT": 0}, "tle": {"line1": "1 35885U 93036ATY 25345.58367066  .00001554  00000+0  52576-3 0  9992", "line2": "2 35885  74.0283 296.9234 0023132  17.6536 342.5416 14.37516980649995"}}, "geometry": {"type": "Point", "coordinates": [-69.5568195974527, -16.354986593882483]}}, {"type": "Feature", "properties": {"norad_id": 35888, "name": "COSMOS 2251 DEB", "group": "cosmos-2251-debris", "lat": -72.02043864405043, "lon": -64.75601371572674, "alt_km": 734.7881259161431, "timestamp": "2025-12-12T11:38:31.809489+00:00", "meta": {"OBJECT_NAME": "COSMOS 2251 DEB", "OBJECT_ID": "1993-036AUB", "EPOCH": "2025-12-10T18:51:31.727232", "MEAN_MOTION": 14.58307538, "ECCENTRICITY": 0.00482976, "INCLINATION": 74.0337, "RA_OF_ASC_NODE": 0.3865, "ARG_OF_PERICENTER": 133.126, "MEAN_ANOMALY": 227.3961, "EPHEMERIS_TYPE": 0, "CLASSIFICATION_TYPE": "U", "NORAD_CAT_ID": 35888, "ELEMENT_SET_NO": 999, "REV_AT_EPOCH": 86245, "BSTAR": 0.00056484468, "MEAN_MOTION_DOT": 2.626e-05, "MEAN_MOTION_DDOT": 0}, "tle": {"line1": "1 35888U 93036AUB 25344.78578388  .00002626  00000+0  56484-3 0  9990", "line2": "2 35888  74.0337   0.3865 0048297 133.1260 227.3961 14.58307538862455"}}, "geometry": {"type": "Point", "coordinates": [-64.75601371572674, -72.02043864405043]}}, {"type": "Feature", "properties": {"norad_id": 35890, "name": "COSMOS 2251 DEB", "group": "cosmos-2251-debris", "lat": -37.72600007818893, "lon": -129.6921686637028, "alt_km": 681.4314366799372, "timestamp": "2025-12-12T11:38:31.809499+00:00", "meta": {"OBJECT_NAME": "COSMOS 2251 DEB", "OBJECT_ID": "1993-036AUD", "EPOCH": "2025-12-11T11:06:40.401504", "MEAN_MOTION": 14.57450007, "ECCENTRICITY": 0.00537284, "INCLINATION": 73.9357, "RA_OF_ASC_NODE": 245.1419, "ARG_OF_PERICENTER": 9.9774, "MEAN_ANOMALY": 350.2442, "EPHEMERIS_TYPE": 0, "CLASSIFICATION_TYPE": "U", "NORAD_CAT_ID": 35890, "ELEMENT_SET_NO": 999, "REV_AT_EPOCH": 65132, "BSTAR": 0.0035408438, "MEAN_MOTION_DOT": 0.00016406, "MEAN_MOTION_DDOT": 0}, "tle": {"line1": "1 35890U 93036AUD 25345.46296761  .00016406  00000+0  35408-2 0  9994", "line2": "2 35890  73.9357 245.1419 0053728   9.9774 350.2442 14.57450007651328"}}, "geometry": {"type": "Point", "coordinates": [-129.6921686637028, -37.72600007818893]}}, {"type": "Feature", "properties": {"norad_id": 35891, "name": "COSMOS 2251 DEB", "group": "cosmos-2251-debris", "lat": 31.463652378436876, "lon": -95.69841618082357, "alt_km": 457.3475278815231, "timestamp": "2025-12-12T11:38:31.809509+00:00", "meta": {"OBJECT_NAME": "COSMOS 2251 DEB", "OBJECT_ID": "1993-036AUE", "EPOCH": "2025-12-10T15:08:56.488704", "MEAN_MOTION": 15.33032056, "ECCENTRICITY": 0.0044173, "INCLINATION": 73.9885, "RA_OF_ASC_NODE": 98.397, "ARG_OF_PERICENTER": 228.9907, "MEAN_ANOMALY": 130.7474, "EPHEMERIS_TYPE": 0, "CLASSIFICATION_TYPE": "U", "NORAD_CAT_ID": 35891, "ELEMENT_SET_NO": 999, "REV_AT_EPOCH": 67188, "BSTAR": 0.0020263, "MEAN_MOTION_DOT": 0.00067253, "MEAN_MOTION_DDOT": 0}, "tle": {"line1": "1 35891U 93036AUE 25344.63120936  .00067253  00000+0  20263-2 0  9992", "line2": "2 35891  73.9885  98.3970 0044173 228.9907 130.7474 15.33032056671884"}}, "geometry": {"type": "Point", "coordinates": [-95.69841618082357, 31.463652378436876]}}, {"type": "Feature", "properties": {"norad_id": 35895, "name": "COSMOS 2251 DEB", "group": "cosmos-2251-debris", "lat": -43.87019272180116, "lon": -175.93614139664808, "alt_km": 1003.5996786169762, "timestamp": "2025-12-12T11:38:31.809519+00:00", "meta": {"OBJECT_NAME": "COSMOS 2251 DEB", "OBJECT_ID": "1993-036AUJ", "EPOCH": "2025-12-11T07:10:31.732032", "MEAN_MOTION": 14.01513994, "ECCENTRICITY": 0.01987879, "INCLINATION": 74.0502, "RA_OF_ASC_NODE": 350.1634, "ARG_OF_PERICENTER": 88.7843, "MEAN_ANOMALY": 273.6056, "EPHEMERIS_TYPE": 0, "CLASSIFICATION_TYPE": "U", "NORAD_CAT_ID": 35895, "ELEMENT_SET_NO": 999, "REV_AT_EPOCH": 58992, "BSTAR": 0.0020881347, "MEAN_MOTION_DOT": 3.73e-05, "MEAN_MOTION_DDOT": 0}, "tle": {"line1": "1 35895U 93036AUJ 25345.29897838  .00003730  00000+0  20881-2 0  9997", "line2": "2 35895  74.0502 350.1634 0198787  88.7843 273.6056 14.01513994589929"}}, "geometry": {"type": "Point", "coordinates": [-175.93614139664808, -43.87019272180116]}}, {"type": "Feature", "properties": {"norad_id": 35898, "name": "COSMOS 2251 DEB", "group": "cosmos-2251-debris", "lat": 2.7732705447972323, "lon": -61.23314072447847, "alt_km": 574.2749714200663, "timestamp": "2025-12-12T11:38:31.809529+00:00", "meta": {"OBJECT_NAME": "COSMOS 2251 DEB", "OBJECT_ID": "1993-036AUM", "EPOCH": "2025-12-11T03:33:58.696128", "MEAN_MOTION": 14.94658859, "ECCENTRICITY": 0.00792199, "INCLINATION": 73.9916, "RA_OF_ASC_NODE": 300.6702, "ARG_OF_PERICENTER": 84.5945, "MEAN_ANOMALY": 290.8859, "EPHEMERIS_TYPE": 0, "CLASSIFICATION_TYPE": "U", "NORAD_CAT_ID": 35898, "ELEMENT_SET_NO": 999, "REV_AT_EPOCH": 66786, "BSTAR": 0.001087469, "MEAN_MOTION_DOT": 0.00012532, "MEAN_MOTION_DDOT": 0}, "tle": {"line1": "1 35898U 93036AUM 25345.14859602  .00012532  00000+0  10875-2 0  9993", "line2": "2 35898  73.9916 300.6702 0079219  84.5945 290.8859 14.94658859667864"}}, "geometry": {"type": "Point", "coordinates": [-61.23314072447847, 2.7732705447972323]}}, {"type": "Feature", "properties": {"norad_id": 35901, "name": "COSMOS 2251 DEB", "group": "cosmos-2251-debris", "lat": -3.6004557003110644, "lon": 22.36368278893855, "alt_km": 543.8657576328687, "timestamp": "2025-12-12T11:38:31.809539+00:00", "meta": {"OBJECT_NAME": "COSMOS 2251 DEB", "OBJECT_ID": "1993-036AUQ", "EPOCH": "2025-12-07T10:36:21.692736", "MEAN_MOTION": 15.06319673, "ECCENTRICITY": 0.00066034, "INCLINATION": 74.0121, "RA_OF_ASC_NODE": 33.7639, "ARG_OF_PERICENTER": 0.5644, "MEAN_ANOMALY": 13.1472, "EPHEMERIS_TYPE": 0, "CLASSIFICATION_TYPE": "U", "NORAD_CAT_ID": 35901, "ELEMENT_SET_NO": 999, "REV_AT_EPOCH": 86047, "BSTAR": 0.0047775116, "MEAN_MOTION_DOT": 0.0007096, "MEAN_MOTION_DDOT": 0}, "tle": {"line1": "1 35901U 93036AUQ 25341.44191774  .00070960  00000+0  47775-2 0  9994", "line2": "2 35901  74.0121  33.7639 0006603   0.5644  13.1472 15.06319673860474"}}, "geometry": {"type": "Point", "coordinates": [22.36368278893855, -3.6004557003110644]}}, {"type": "Feature", "properties": {"norad_id": 35902, "name": "COSMOS 2251 DEB", "group": "cosmos-2251-debris", "lat": -4.0132405726283045, "lon": -126.11073418988198, "alt_km": 732.3262557678145, "timestamp": "2025-12-12T11:38:31.809549+00:00", "meta": {"OBJECT_NAME": "COSMOS 2251 DEB", "OBJECT_ID": "1993-036AUR", "EPOCH": "2025-12-12T01:33:56.017152", "MEAN_MOTION": 14.26898947, "ECCENTRICITY": 0.0102057, "INCLINATION": 73.9828, "RA_OF_ASC_NODE": 235.8058, "ARG_OF_PERICENTER": 350.6999, "MEAN_ANOMALY": 9.2255, "EPHEMERIS_TYPE": 0, "CLASSIFICATION_TYPE": "U", "NORAD_CAT_ID": 35902, "ELEMENT_SET_NO": 999, "REV_AT_EPOCH": 61120, "BSTAR": 0.00163, "MEAN_MOTION_DOT": 4.159e-05, "MEAN_MOTION_DDOT": 0}, "tle": {"line1": "1 35902U 93036AUR 25346.06523168  .00004159  00000+0  16300-2 0  9991", "line2": "2 35902  73.9828 235.8058 0102057 350.6999   9.2255 14.26898947611206"}}, "geometry": {"type": "Point", "coordinates": [-126.11073418988198, -4.0132405726283045]}}, {"type": "Feature", "properties": {"norad_id": 35905, "name": "COSMOS 2251 DEB", "group": "cosmos-2251-debris", "lat": -57.96255661331612, "lon": 58.56158788436539, "alt_km": 535.478874134692, "timestamp": "2025-12-12T11:38:31.809559+00:00", "meta": {"OBJECT_NAME": "COSMOS 2251 DEB", "OBJECT_ID": "1993-036AUU", "EPOCH": "2025-12-11T08:55:52.650624", "MEAN_MOTION": 14.98993139, "ECCENTRICITY": 0.00908105, "INCLINATION": 74.0316, "RA_OF_ASC_NODE": 213.5888, "ARG_OF_PERICENTER": 293.9806, "MEAN_ANOMALY": 65.1892, "EPHEMERIS_TYPE": 0, "CLASSIFICATION_TYPE": "U", "NORAD_CAT_ID": 35905, "ELEMENT_SET_NO": 999, "REV_AT_EPOCH": 88562, "BSTAR": 0.0009939745, "MEAN_MOTION_DOT": 0.00013108, "MEAN_MOTION_DDOT": 0}, "tle": {"line1": "1 35905U 93036AUU 25345.37213716  .00013108  00000+0  99397-3 0  9994", "line2": "2 35905  74.0316 213.5888 0090810 293.9806  65.1892 14.98993139885621"}}, "geometry": {"type": "Point", "coordinates": [58.56158788436539, -57.96255661331612]}}, {"type": "Feature", "properties": {"norad_id": 35959, "name": "COSMOS 2251 DEB", "group": "cosmos-2251-debris", "lat": 67.561167591326, "lon": -3.5766658717171396, "alt_km": 759.364642942076, "timestamp": "2025-12-12T11:38:31.809569+00:00", "meta": {"OBJECT_NAME": "COSMOS 2251 DEB", "OBJECT_ID": "1993-036AUZ", "EPOCH": "2025-12-12T04:36:10.980000", "MEAN_MOTION": 14.34135364, "ECCENTRICITY": 0.0021519, "INCLINATION": 74.0326, "RA_OF_ASC_NODE": 313.0668, "ARG_OF_PERICENTER": 33.709, "MEAN_ANOMALY": 326.5425, "EPHEMERIS_TYPE": 0, "CLASSIFICATION_TYPE": "U", "NORAD_CAT_ID": 35959, "ELEMENT_SET_NO": 999, "REV_AT_EPOCH": 84920, "BSTAR": 0.00020105, "MEAN_MOTION_DOT": 5.38e-06, "MEAN_MOTION_DDOT": 0}, "tle": {"line1": "1 35959U 93036AUZ 25346.19179375  .00000538  00000+0  20105-3 0  9990", "line2": "2 35959  74.0326 313.0668 0021519  33.7090 326.5425 14.34135364849206"}}, "geometry": {"type": "Point", "coordinates": [-3.5766658717171396, 67.561167591326]}}]}